[{"OBJECT_NAME":"STARLINK-11487 [DTC]","OBJECT_ID":"2024-237M","EPOCH":"2026-03-09T23:42:00.327456","MEAN_MOTION":15.70882532,"ECCENTRICITY":0.00015723,"INCLINATION":43.0003,"RA_OF_ASC_NODE":55.3015,"ARG_OF_PERICENTER":243.0309,"MEAN_ANOMALY":117.0398,"EPHEMERIS_TYPE":0,"CLASSIFICATION_TYPE":"U","NORAD_CAT_ID":62278,"ELEMENT_SET_NO":999,"REV_AT_EPOCH":7309,"BSTAR":0.00099580366,"MEAN_MOTION_DOT":0.00129568,"MEAN_MOTION_DDOT":0},{"OBJECT_NAME":"STARLINK-33633","OBJECT_ID":"2025-063V","EPOCH":"2026-03-09T22:00:01.999584","MEAN_MOTION":15.63168458,"ECCENTRICITY":0.00129891,"INCLINATION":53.1539,"RA_OF_ASC_NODE":39.8759,"ARG_OF_PERICENTER":117.785,"MEAN_ANOMALY":338.2735,"EPHEMERIS_TYPE":0,"CLASSIFICATION_TYPE":"U","NORAD_CAT_ID":63382,"ELEMENT_SET_NO":999,"REV_AT_EPOCH":591,"BSTAR":0.0058075952,"MEAN_MOTION_DOT":0.00581659,"MEAN_MOTION_DDOT":0}]
